[{"OBJECT_NAME":"STARLINK-30067","OBJECT_ID":"2023-067F","EPOCH":"2026-03-09T22:18:02.822976","MEAN_MOTION":15.02534016,"ECCENTRICITY":0.0001088,"INCLINATION":43.0035,"RA_OF_ASC_NODE":273.3696,"ARG_OF_PERICENTER":270.2297,"MEAN_ANOMALY":89.842,"EPHEMERIS_TYPE":0,"CLASSIFICATION_TYPE":"U","NORAD_CAT_ID":56693,"ELEMENT_SET_NO":999,"REV_AT_EPOCH":15569,"BSTAR":0.00025963215,"MEAN_MOTION_DOT":3.305e-5,"MEAN_MOTION_DDOT":0},{"OBJECT_NAME":"ION SCV-014","OBJECT_ID":"2025-009X","EPOCH":"2026-03-09T17:13:35.291712","MEAN_MOTION":15.0488465,"ECCENTRICITY":0.00064503,"INCLINATION":97.4923,"RA_OF_ASC_NODE":144.8636,"ARG_OF_PERICENTER":112.6479,"MEAN_ANOMALY":247.543,"EPHEMERIS_TYPE":0,"CLASSIFICATION_TYPE":"U","NORAD_CAT_ID":62630,"ELEMENT_SET_NO":999,"REV_AT_EPOCH":6302,"BSTAR":0.0001322874,"MEAN_MOTION_DOT":1.812e-5,"MEAN_MOTION_DDOT":0}]
